EXPRESS-AM44            
1 33595U 09007A   24267.59617039 -.00000101  00000+0  00000+0 0  9993
2 33595   1.8280  86.0968 0004113  99.3890  21.0697  1.00271891 45957
NSS-9                   
1 33749U 09008A   24267.56438223  .00000060  00000+0  00000+0 0  9991
2 33749   0.0027  89.4580 0002146  97.8722 201.8276  1.00273594 57187
EUTELSAT 33E            
1 33750U 09008B   24267.57931560 -.00000160  00000+0  00000+0 0  9998
2 33750   1.0353  87.6797 0005035 102.9233 285.4552  1.00270034 57111
TELSTAR 11N             
1 34111U 09009A   24267.44777872 -.00000262  00000+0  00000+0 0  9994
2 34111   0.0010 136.5301 0002280  37.6988 312.2080  1.00273721 39916
WGS F2 (USA 204)        
1 34713U 09017A   24267.53822118  .00000056  00000+0  00000+0 0  9995
2 34713   0.0176 149.1048 0001481 132.7213 332.2998  1.00269515 39281
SES-7 (PROTOSTAR 2)     
1 34941U 09027A   24267.54829931 -.00000357  00000+0  00000+0 0  9995
2 34941   0.0594  73.0219 0002247 162.7237  72.7647  1.00269011 56291
MEASAT-3A               
1 35362U 09032A   24267.35511017 -.00000123  00000+0  00000+0 0  9992
2 35362   0.0182 126.1430 0002054  86.9864  77.3568  1.00271524  1695
GOES 14                 
1 35491U 09033A   24267.57679606 -.00000078  00000+0  00000+0 0  9998
2 35491   0.0399 111.6234 0003941  61.8690 288.6212  1.00270324   266
FM-5                    
1 35493U 09034A   24267.02271654 -.00000211  00000+0  00000+0 0  9991
2 35493   0.0344 265.8914 0000195 313.2539  65.2630  1.00272351 40303
TERRESTAR-1             
1 35496U 09035A   24267.52132601 -.00000067  00000+0  00000+0 0  9997
2 35496   4.6166  47.9068 0002791 142.4810 249.1587  1.00272484 55807
ASIASAT 5               
1 35696U 09042A   24267.54673545 -.00000320  00000+0  00000+0 0  9998
2 35696   0.0394 260.3460 0001680 270.4910 129.3901  1.00273048 55376
JCSAT-12 (JCSAT-RA)     
1 35755U 09044A   24267.49216222 -.00000340  00000+0  00000+0 0  9997
2 35755   0.0525  95.9346 0001638  34.6467 181.4951  1.00272198 55271
OPTUS D3                
1 35756U 09044B   24267.50882796 -.00000159  00000+0  00000+0 0  9993
2 35756   0.2585  83.5444 0002402  96.9452 161.5252  1.00272273 55229
NIMIQ 5                 
1 35873U 09050A   24267.65135858 -.00000269  00000+0  00000+0 0  9998
2 35873   0.0192 150.3048 0002871  39.4230 335.0633  1.00271505 55015
AMAZONAS 2              
1 35942U 09054A   24267.51467661 -.00000294  00000+0  00000+0 0  9992
2 35942   0.1729  96.4761 0005360  97.2064 293.6580  1.00270375 54859
COMSATBW-1              
1 35943U 09054B   24267.53935062  .00000012  00000+0  00000+0 0  9997
2 35943   0.0460  84.6980 0003540 123.2214  52.1034  1.00271713 54969
NSS-12                  
1 36032U 09058A   24267.53796056  .00000059  00000+0  00000+0 0  9990
2 36032   0.0557  76.2710 0003521 112.3098  64.9545  1.00272563 54582
THOR 6                  
1 36033U 09058B   24267.02604594 -.00000021  00000+0  00000+0 0  9990
2 36033   0.0161 181.6833 0002081  26.5619 162.6548  1.00270721 54668
INTELSAT 14 (IS-14)     
1 36097U 09064A   24267.36264569 -.00000285  00000+0  00000+0 0  9990
2 36097   0.0199  92.8439 0002584 105.5331 249.8841  1.00270962 54268
EUTELSAT 36B            
1 36101U 09065A   24267.31924462  .00000144  00000+0  00000+0 0  9990
2 36101   0.0681   9.9068 0005287 177.4929 326.0742  1.00273568 54376
INTELSAT 15 (IS-15)     
1 36106U 09067A   24267.47219209 -.00000197  00000+0  00000+0 0  9999
2 36106   0.0196 171.1200 0002316  18.7149  68.1243  1.00270775 34895
WGS F3 (USA 211)        
1 36108U 09068A   24267.57132260  .00000104  00000+0  00000+0 0  9991
2 36108   0.1270  88.6170 0002798 164.6506 179.4367  0.99719243 40267
DIRECTV 12              
1 36131U 09075A   24267.50162316 -.00000115  00000+0  00000+0 0  9996
2 36131   0.0084 136.3484 0000192 154.4528 149.9032  1.00271939 40215
BEIDOU-2 G1             
1 36287U 10001A   24267.55472845 -.00000292  00000+0  00000+0 0  9991
2 36287   2.8295  59.1907 0002974 267.6312  16.2144  1.00269795 53830
RADUGA-1M 2             
1 36358U 10002A   24267.40066602 -.00000195  00000+0  00000+0 0  9997
2 36358   1.9709  87.1212 0002948 132.7141  12.1223  1.00269185 43758
SDO                     
1 36395U 10005A   24265.09906735 -.00000065  00000+0  00000+0 0  9990
2 36395  33.3188  96.0885 0001508 157.7037  40.5960  1.00274641 53674
INTELSAT 16 (IS-16)     
1 36397U 10006A   24267.58313833 -.00000256  00000+0  00000+0 0  9992
2 36397   0.0139 158.3019 0002246  42.6710 295.6630  1.00269363 53328
EWS-G2 (GOES 15)        
1 36411U 10008A   24267.61050565  .00000026  00000+0  00000+0 0  9999
2 36411   0.3496 274.6566 0006280 308.0804  61.2959  1.00270502 53315
ECHOSTAR 14             
1 36499U 10010A   24267.25553682 -.00000011  00000+0  00000+0 0  9991
2 36499   0.0183 196.7217 0002359 347.3242 151.6556  1.00271537 40214
SES-1                   
1 36516U 10016A   24267.21091066 -.00000126  00000+0  00000+0 0  9993
2 36516   0.0442 293.4314 0002581 248.4339 155.6114  1.00271631 52694
ASTRA 3B                
1 36581U 10021A   24267.32479878  .00000126  00000+0  00000+0 0  9993
2 36581   0.0133 297.1819 0003528 236.8692 329.0813  1.00275731 52541
COMSATBW-2              
1 36582U 10021B   24267.60094882  .00000076  00000+0  00000+0 0  9997
2 36582   0.0197 128.7663 0002738  77.0411  26.6825  1.00268775 52626
