OBJECT_NAME,OBJECT_ID,EPOCH,MEAN_MOTION,ECCENTRICITY,INCLINATION,RA_OF_ASC_NODE,ARG_OF_PERICENTER,MEAN_ANOMALY,EPHEMERIS_TYPE,CLASSIFICATION_TYPE,NORAD_CAT_ID,ELEMENT_SET_NO,REV_AT_EPOCH,BSTAR,MEAN_MOTION_DOT,MEAN_MOTION_DDOT
EXPRESS-AM44,2009-007A,2024-09-23T14:18:29.121696,1.00271891,.0004113,1.8280,86.0968,99.3890,21.0697,0,U,33595,999,4595,0,-.101E-5,0
NSS-9,2009-008A,2024-09-23T13:32:42.624672,1.00273594,.0002146,0.0027,89.4580,97.8722,201.8276,0,U,33749,999,5718,0,.6E-6,0
EUTELSAT 33E,2009-008B,2024-09-23T13:54:12.867840,1.00270034,.0005035,1.0353,87.6797,102.9233,285.4552,0,U,33750,999,5711,0,-.16E-5,0
TELSTAR 11N,2009-009A,2024-09-23T10:44:48.081408,1.00273721,.000228,0.0010,136.5301,37.6988,312.2080,0,U,34111,999,3991,0,-.262E-5,0
WGS F2 (USA 204),2009-017A,2024-09-23T12:55:02.309952,1.00269515,.0001481,0.0176,149.1048,132.7213,332.2998,0,U,34713,999,3928,0,.56E-6,0
SES-7 (PROTOSTAR 2),2009-027A,2024-09-23T13:09:33.060384,1.00269011,.0002247,0.0594,73.0219,162.7237,72.7647,0,U,34941,999,5629,0,-.357E-5,0
MEASAT-3A,2009-032A,2024-09-23T08:31:21.518688,1.00271524,.0002054,0.0182,126.1430,86.9864,77.3568,0,U,35362,999,169,0,-.123E-5,0
GOES 14,2009-033A,2024-09-23T13:50:35.179584,1.00270324,.0003941,0.0399,111.6234,61.8690,288.6212,0,U,35491,999,26,0,-.78E-6,0
FM-5,2009-034A,2024-09-23T00:32:42.709056,1.00272351,.0000195,0.0344,265.8914,313.2539,65.2630,0,U,35493,999,4030,0,-.211E-5,0
TERRESTAR-1,2009-035A,2024-09-23T12:30:42.567264,1.00272484,.0002791,4.6166,47.9068,142.4810,249.1587,0,U,35496,999,5580,0,-.67E-6,0
ASIASAT 5,2009-042A,2024-09-23T13:07:17.942880,1.00273048,.000168,0.0394,260.3460,270.4910,129.3901,0,U,35696,999,5537,0,-.32E-5,0
JCSAT-12 (JCSAT-RA),2009-044A,2024-09-23T11:48:42.815808,1.00272198,.0001638,0.0525,95.9346,34.6467,181.4951,0,U,35755,999,5527,0,-.34E-5,0
OPTUS D3,2009-044B,2024-09-23T12:12:42.735744,1.00272273,.0002402,0.2585,83.5444,96.9452,161.5252,0,U,35756,999,5522,0,-.159E-5,0
NIMIQ 5,2009-050A,2024-09-23T15:37:57.381312,1.00271505,.0002871,0.0192,150.3048,39.4230,335.0633,0,U,35873,999,5501,0,-.269E-5,0
AMAZONAS 2,2009-054A,2024-09-23T12:21:08.059104,1.00270375,.000536,0.1729,96.4761,97.2064,293.6580,0,U,35942,999,5485,0,-.294E-5,0
COMSATBW-1,2009-054B,2024-09-23T12:56:39.893568,1.00271713,.000354,0.0460,84.6980,123.2214,52.1034,0,U,35943,999,5496,0,.12E-6,0
NSS-12,2009-058A,2024-09-23T12:54:39.792384,1.00272563,.0003521,0.0557,76.2710,112.3098,64.9545,0,U,36032,999,5458,0,.59E-6,0
THOR 6,2009-058B,2024-09-23T00:37:30.369216,1.00270721,.0002081,0.0161,181.6833,26.5619,162.6548,0,U,36033,999,5466,0,-.21E-6,0
INTELSAT 14 (IS-14),2009-064A,2024-09-23T08:42:12.587616,1.00270962,.0002584,0.0199,92.8439,105.5331,249.8841,0,U,36097,999,5426,0,-.285E-5,0
EUTELSAT 36B,2009-065A,2024-09-23T07:39:42.735168,1.00273568,.0005287,0.0681,9.9068,177.4929,326.0742,0,U,36101,999,5437,0,.144E-5,0
INTELSAT 15 (IS-15),2009-067A,2024-09-23T11:19:57.396576,1.00270775,.0002316,0.0196,171.1200,18.7149,68.1243,0,U,36106,999,3489,0,-.197E-5,0
WGS F3 (USA 211),2009-068A,2024-09-23T13:42:42.272640,0.99719243,.0002798,0.1270,88.6170,164.6506,179.4367,0,U,36108,999,4026,0,.104E-5,0
DIRECTV 12,2009-075A,2024-09-23T12:02:20.241024,1.00271939,.0000192,0.0084,136.3484,154.4528,149.9032,0,U,36131,999,4021,0,-.115E-5,0
BEIDOU-2 G1,2010-001A,2024-09-23T13:18:48.538080,1.00269795,.0002974,2.8295,59.1907,267.6312,16.2144,0,U,36287,999,5383,0,-.292E-5,0
RADUGA-1M 2,2010-002A,2024-09-23T09:36:57.544128,1.00269185,.0002948,1.9709,87.1212,132.7141,12.1223,0,U,36358,999,4375,0,-.195E-5,0
SDO,2010-005A,2024-09-21T02:22:39.419040,1.00274641,.0001508,33.3188,96.0885,157.7037,40.5960,0,U,36395,999,5367,0,-.65E-6,0
INTELSAT 16 (IS-16),2010-006A,2024-09-23T13:59:43.151712,1.00269363,.0002246,0.0139,158.3019,42.6710,295.6630,0,U,36397,999,5332,0,-.256E-5,0
EWS-G2 (GOES 15),2010-008A,2024-09-23T14:39:07.688160,1.00270502,.000628,0.3496,274.6566,308.0804,61.2959,0,U,36411,999,5331,0,.26E-6,0
ECHOSTAR 14,2010-010A,2024-09-23T06:07:58.381248,1.00271537,.0002359,0.0183,196.7217,347.3242,151.6556,0,U,36499,999,4021,0,-.11E-6,0
SES-1,2010-016A,2024-09-23T05:03:42.681024,1.00271631,.0002581,0.0442,293.4314,248.4339,155.6114,0,U,36516,999,5269,0,-.126E-5,0
ASTRA 3B,2010-021A,2024-09-23T07:47:42.614592,1.00275731,.0003528,0.0133,297.1819,236.8692,329.0813,0,U,36581,999,5254,0,.126E-5,0
COMSATBW-2,2010-021B,2024-09-23T14:25:21.978048,1.00268775,.0002738,0.0197,128.7663,77.0411,26.6825,0,U,36582,999,5262,0,.76E-6,0
